ONEWEB-0687             
1 61595U 24188B   25175.15192979  .00000133  00000+0  25396-3 0  9996
2 61595  87.9579  77.1932 0003363  69.0435 291.1064 13.30705428 38742
ONEWEB-0688             
1 61596U 24188C   25178.19273691 -.00141127  00000+0 -33195+0 0  9998
2 61596  87.9354  76.5898 0001062  51.8298 308.2933 13.24828526 37212
ONEWEB-0689             
1 61597U 24188D   25177.72412004 -.00000281  00000+0 -82762-3 0  9993
2 61597  87.8806  91.9360 0002028  66.7580 293.3761 13.11418143 37861
ONEWEB-0690             
1 61598U 24188E   25177.81059780  .00000153  00000+0  39573-3 0  9990
2 61598  87.8859  91.8648 0002121  97.7652 262.3717 13.11417076 38059
ONEWEB-0691             
1 61599U 24188F   25177.80549769 -.00000386  00000+0 -11239-2 0  9999
2 61599  87.8754  91.8887 0001572  75.6222 284.5080 13.11421723 37902
ONEWEB-0692             
1 61600U 24188G   25177.74956522  .00000540  00000+0  14883-2 0  9992
2 61600  87.8832  91.9559 0002877  71.3130 288.8310 13.11417835 37888
ONEWEB-0693             
1 61601U 24188H   25177.66783854  .00000062  00000+0  11418-3 0  9991
2 61601  87.9253  76.7114 0003478  87.0256 273.1277 13.24033894 39060
ONEWEB-0695             
1 61602U 24188J   25177.72581905 -.00000215  00000+0 -64296-3 0  9996
2 61602  87.8841  91.9445 0002382  65.9663 294.1714 13.11417397 37875
